{"epoch":1784902576,"count":18312,"objects":[{"id":"41914","name":"JILIN-1-03","type":"PAYLOAD","l1":"1 41914U 17002B   26205.27438627  .00015562  00000-0  36137-3 0  9995","l2":"2 41914  97.1958 211.8585 0007168  54.8935 305.2984 15.42422070527570"},{"id":"41948","name":"CARTOSAT 2D","type":"PAYLOAD","l1":"1 41948U 17008A   26204.44911100  .00003968  00000-0  19096-3 0  9990","l2":"2 41948  97.4087 263.0730 0006506 117.0345 243.1554 15.19329256523087"},{"id":"42767","name":"CARTOSAT 2E","type":"PAYLOAD","l1":"1 42767U 17036C   26204.59876079  .00004931  00000-0  23677-3 0  9993","l2":"2 42767  97.4256 263.7967 0004182 159.7710 200.3691 15.19302949503671"},{"id":"42794","name":"DSAT","type":"PAYLOAD","l1":"1 42794U 17036AF  26203.18321168  .00008435  00000-0  38892-3 0  9999","l2":"2 42794  97.5582 182.0157 0082229  41.5190 319.2249 15.17476753496163"},{"id":"42803","name":"IRIDIUM 113","type":"PAYLOAD","l1":"1 42803U 17039A   26205.28744429  .00000009  00000-0 -38164-5 0  9999","l2":"2 42803  86.3991 306.6744 0002039  93.9682 266.1747 14.34217471476505"},{"id":"42828","name":"NORSAT 2","type":"PAYLOAD","l1":"1 42828U 17042D   26205.29872281  .00013247  00000-0  57255-3 0  9996","l2":"2 42828  97.4062  18.1732 0007963 280.8487  79.1853 15.22569731493389"},{"id":"42829","name":"TECHNOSAT","type":"PAYLOAD","l1":"1 42829U 17042E   26205.21452919  .00002653  00000-0  18989-3 0  9991","l2":"2 42829  97.4321   1.4770 0016554 332.7880  27.2478 15.05147322492278"},{"id":"42831","name":"FLYING LAPTOP","type":"PAYLOAD","l1":"1 42831U 17042G   26205.31100464  .00002961  00000-0  23347-3 0  9996","l2":"2 42831  97.4851 359.4578 0019072   3.5658 356.5700 15.01356238492028"},{"id":"42835","name":"WNISAT 1R","type":"PAYLOAD","l1":"1 42835U 17042L   26205.00345479  .00001303  00000-0  10409-3 0  9997","l2":"2 42835  97.4805 359.8092 0009669  35.1537 325.0324 15.01873785492039"},{"id":"42837","name":"LEMUR 2 GREENBERG","type":"PAYLOAD","l1":"1 42837U 17042N   26205.25502873  .00022204  00000-0  71054-3 0  9995","l2":"2 42837  97.3837  25.7425 0007754 222.5049 137.5593 15.32391805494068"},{"id":"42840","name":"LEMUR 2 FURIAUS","type":"PAYLOAD","l1":"1 42840U 17042R   26205.01259958  .00016691  00000-0  55278-3 0  9999","l2":"2 42840  97.3784  23.3730 0005610 291.8646  68.1998 15.31360794493842"},{"id":"42846","name":"CORVUS BC2","type":"PAYLOAD","l1":"1 42846U 17042X   26205.26007757  .00004123  00000-0  28269-3 0  9997","l2":"2 42846  97.4099   5.1812 0012512 351.4289   8.6723 15.06498387492646"},{"id":"42847","name":"CORVUS BC1","type":"PAYLOAD","l1":"1 42847U 17042Y   26204.98495899  .00003237  00000-0  22200-3 0  9998","l2":"2 42847  97.4136   5.7546 0010762 328.8316  31.2273 15.06661133492635"},{"id":"42954","name":"VRSS-2","type":"PAYLOAD","l1":"1 42954U 17060A   26205.27376497  .00001418  00000-0  18797-3 0  9997","l2":"2 42954  97.6503 241.3280 0016525 344.2846  15.7853 14.81250581473947"},{"id":"43005","name":"MOHAMMED VI-A","type":"PAYLOAD","l1":"1 43005U 17070A   26205.26561584  .00000293  00000-0  48698-4 0  9992","l2":"2 43005  97.9542 277.0833 0001383 102.1056 258.0309 14.77110050469451"},{"id":"43010","name":"FENGYUN 3D","type":"PAYLOAD","l1":"1 43010U 17072A   26205.28748098  .00000219  00000-0  12528-3 0  9999","l2":"2 43010  99.0153 180.3849 0000999 355.3114   4.8052 14.19746072450255"},{"id":"43013","name":"NOAA 20","type":"PAYLOAD","l1":"1 43013U 17073A   26205.28854733  .00000048  00000-0  43702-4 0  9996","l2":"2 43013  98.7773 144.4227 0001681 114.1442 245.9910 14.19517850449739"},{"id":"43016","name":"MAKERSAT 0","type":"PAYLOAD","l1":"1 43016U 17073D   26205.19779399  .00026732  00000-0  69466-3 0  9995","l2":"2 43016  97.4575  88.0240 0105720 140.4154 220.4870 15.33300093472136"},{"id":"43017","name":"AO-91","type":"PAYLOAD","l1":"1 43017U 17073E   26205.04693333  .00009912  00000-0  42813-3 0  9991","l2":"2 43017  97.4662  71.5110 0148688 200.7227 158.7937 15.13159133470969"},{"id":"43022","name":"JILIN-01-04","type":"PAYLOAD","l1":"1 43022U 17074A   26205.31307516  .00016106  00000-0  36302-3 0  9992","l2":"2 43022  97.4873 315.9438 0005035  75.9340 284.2466 15.43328148479994"},{"id":"43023","name":"JILIN-01-05","type":"PAYLOAD","l1":"1 43023U 17074B   26205.29934977  .00010029  00000-0  30322-3 0  9991","l2":"2 43023  97.4877 311.9729 0006592  99.5405 260.6583 15.34401998479691"},{"id":"43024","name":"JILIN-01-06","type":"PAYLOAD","l1":"1 43024U 17074C   26205.27703774  .00007733  00000-0  23666-3 0  9990","l2":"2 43024  97.4802 308.9089 0008413 107.4331 252.7832 15.34086841479523"},{"id":"43072","name":"IRIDIUM 116","type":"PAYLOAD","l1":"1 43072U 17083C   26205.26207392  .00000220  00000-0  71376-4 0  9993","l2":"2 43072  86.3984 306.5046 0002556  95.8793 264.2694 14.34218818449481"},{"id":"43073","name":"IRIDIUM 130","type":"PAYLOAD","l1":"1 43073U 17083D   26205.30012955 -.00000056  00000-0 -26955-4 0  9990","l2":"2 43073  86.3991 306.7677 0002307 100.3224 259.8232 14.34217508449435"},{"id":"43080","name":"LKW-2","type":"PAYLOAD","l1":"1 43080U 17084A   26205.26013953  .00008147  00000-0  31195-3 0  9991","l2":"2 43080  97.1180 243.3302 0004012 103.7024 256.4663 15.26784512477342"},{"id":"43099","name":"SUPERVIEW-1 03","type":"PAYLOAD","l1":"1 43099U 18002A   26205.27052038  .00022329  00000-0  53200-3 0  9999","l2":"2 43099  97.3124 290.0798 0046112  49.1080 311.4147 15.40465478474071"},{"id":"43111","name":"CARTOSAT 2F","type":"PAYLOAD","l1":"1 43111U 18004A   26205.29038787  .00002901  00000-0  14102-3 0  9995","l2":"2 43111  97.4772 264.5576 0002895 119.6100 240.5423 15.19226165472961"},{"id":"43146","name":"LKW-3","type":"PAYLOAD","l1":"1 43146U 18006A   26205.32753580  .00009741  00000-0  28115-3 0  9992","l2":"2 43146  97.6647   7.3779 0003841 152.8298 207.3147 15.35900226474410"},{"id":"43152","name":"ASNARO-2","type":"PAYLOAD","l1":"1 43152U 18007A   26205.25634478  .00011621  00000-0  50493-3 0  9990","l2":"2 43152  97.3981 211.6048 0001684  94.6867 265.4562 15.22448003473053"}]}