OBJECT_NAME,OBJECT_ID,EPOCH,MEAN_MOTION,ECCENTRICITY,INCLINATION,RA_OF_ASC_NODE,ARG_OF_PERICENTER,MEAN_ANOMALY,EPHEMERIS_TYPE,CLASSIFICATION_TYPE,NORAD_CAT_ID,ELEMENT_SET_NO,REV_AT_EPOCH,BSTAR,MEAN_MOTION_DOT,MEAN_MOTION_DDOT
JILIN-1 03,2017-002B,2026-07-24T06:35:06.973728,15.42422070,.00071684,97.1958,211.8585,54.8935,305.2984,0,U,41914,999,52757,.3613693E-3,.15562E-3,0
CARTOSAT-2D,2017-008A,2026-07-23T10:46:43.190400,15.19329256,.0006506,97.4087,263.0730,117.0345,243.1554,0,U,41948,999,52308,.19096E-3,.3968E-4,0
CARTOSAT-2E,2017-036C,2026-07-23T14:22:12.932256,15.19302949,.0004182,97.4256,263.7967,159.7710,200.3691,0,U,42767,999,50367,.23677E-3,.4931E-4,0
D-SAT,2017-036AF,2026-07-22T04:23:49.489152,15.17476753,.00822287,97.5582,182.0157,41.5190,319.2249,0,U,42794,999,49616,.38891882E-3,.8435E-4,0
IRIDIUM 113,2017-039A,2026-07-24T06:53:55.186656,14.34217471,.00020385,86.3991,306.6744,93.9682,266.1747,0,U,42803,999,47650,-.3816389E-5,.9E-7,0
NORSAT 2,2017-042D,2026-07-24T07:10:09.650784,15.22569731,.00079631,97.4062,18.1732,280.8487,79.1853,0,U,42828,999,49338,.57254748E-3,.13247E-3,0
TECHNOSAT,2017-042E,2026-07-24T05:08:55.322016,15.05147322,.00165541,97.4321,1.4770,332.7880,27.2478,0,U,42829,999,49227,.18989362E-3,.2653E-4,0
FLYING LAPTOP,2017-042G,2026-07-24T07:27:50.800896,15.01356238,.00190723,97.4851,359.4578,3.5658,356.5700,0,U,42831,999,49202,.23346881E-3,.2961E-4,0
WNISAT 1R,2017-042L,2026-07-24T00:04:58.493856,15.01873785,.00096686,97.4805,359.8092,35.1537,325.0324,0,U,42835,999,49203,.10408788E-3,.1303E-4,0
LEMUR-2-GREENBERG,2017-042N,2026-07-24T06:07:14.482272,15.32391805,.0007754,97.3837,25.7425,222.5049,137.5593,0,U,42837,999,49406,.7105428E-3,.22204E-3,0
LEMUR-2-FURIAUS,2017-042R,2026-07-24T00:18:08.603712,15.31360794,.00056103,97.3784,23.3730,291.8646,68.1998,0,U,42840,999,49384,.5527816E-3,.16691E-3,0
CORVUS BC2,2017-042X,2026-07-24T06:14:30.702048,15.06498387,.00125117,97.4099,5.1812,351.4289,8.6723,0,U,42846,999,49264,.28268913E-3,.4123E-4,0
CORVUS BC1,2017-042Y,2026-07-23T23:38:20.456736,15.06661133,.00107623,97.4136,5.7546,328.8316,31.2273,0,U,42847,999,49263,.22199619E-3,.3237E-4,0
VRSS-2,2017-060A,2026-07-24T06:34:13.293408,14.81250581,.00165247,97.6503,241.3280,344.2846,15.7853,0,U,42954,999,47394,.18797401E-3,.1418E-4,0
MOHAMMED VI-A,2017-070A,2026-07-24T06:22:29.208576,14.77110050,.00013835,97.9542,277.0833,102.1056,258.0309,0,U,43005,999,46945,.4869806E-4,.293E-5,0
FENGYUN 3D,2017-072A,2026-07-24T06:53:58.356672,14.19746072,.00009989,99.0153,180.3849,355.3114,4.8052,0,U,43010,999,45025,.12527589E-3,.219E-5,0
NOAA 20 (JPSS-1),2017-073A,2026-07-24T06:55:30.489312,14.19517850,.00016807,98.7773,144.4227,114.1442,245.9910,0,U,43013,999,44973,.43701707E-4,.48E-6,0
MAKERSAT 0,2017-073D,2026-07-24T04:44:49.400736,15.33300093,.01057202,97.4575,88.0240,140.4154,220.4870,0,U,43016,999,47213,.69465801E-3,.26732E-3,0
RADFXSAT (FOX-1B),2017-073E,2026-07-24T01:07:35.039712,15.13159133,.01486883,97.4662,71.5110,200.7227,158.7937,0,U,43017,999,47096,.42813016E-3,.9912E-4,0
JILIN-1 04,2017-074A,2026-07-24T07:30:49.693824,15.43328148,.00050347,97.4873,315.9438,75.9340,284.2466,0,U,43022,999,47999,.36302268E-3,.16106E-3,0
JILIN-1 05,2017-074B,2026-07-24T07:11:03.820128,15.34401998,.00065921,97.4877,311.9729,99.5405,260.6583,0,U,43023,999,47969,.30321797E-3,.10029E-3,0
JILIN-1 06,2017-074C,2026-07-24T06:38:56.060736,15.34086841,.00084127,97.4802,308.9089,107.4331,252.7832,0,U,43024,999,47952,.23665541E-3,.7733E-4,0
IRIDIUM 116,2017-083C,2026-07-24T06:17:23.186688,14.34218818,.00025556,86.3984,306.5046,95.8793,264.2694,0,U,43072,999,44948,.71376391E-4,.22E-5,0
IRIDIUM 130,2017-083D,2026-07-24T07:12:11.193120,14.34217508,.00023066,86.3991,306.7677,100.3224,259.8232,0,U,43073,999,44943,-.26955078E-4,-.56E-6,0
LKW-2,2017-084A,2026-07-24T06:14:36.055392,15.26784512,.00040122,97.1180,243.3302,103.7024,256.4663,0,U,43080,999,47734,.3119521E-3,.8147E-4,0
SUPERVIEW-1 03,2018-002A,2026-07-24T06:29:32.960832,15.40465478,.00461121,97.3124,290.0798,49.1080,311.4147,0,U,43099,999,47407,.5319959E-3,.22329E-3,0
CARTOSAT-2F,2018-004A,2026-07-24T06:58:09.511968,15.19226165,.00028955,97.4772,264.5576,119.6100,240.5423,0,U,43111,999,47296,.14102052E-3,.2901E-4,0
LKW-3,2018-006A,2026-07-24T07:51:39.093120,15.35900226,.00038414,97.6647,7.3779,152.8298,207.3147,0,U,43146,999,47441,.28114963E-3,.9741E-4,0
ASNARO-2,2018-007A,2026-07-24T06:09:08.188992,15.22448003,.00016844,97.3981,211.6048,94.6867,265.4562,0,U,43152,999,47305,.5049321E-3,.11621E-3,0
